#aV2021  6 19  0  0  0.00000000     288 DD+AD WGS84 FIT  NGA
## 2162 518400.00000000   300.00000000 59384 0.0000000000000
+   31     1  2  3  4  5  6  7  8  9 10 12 13 14 15 16 17 18
+         19 20 21 22 23 24 25 26 27 28 29 30 31 32  0  0  0
+          0  0  0  0  0  0  0  0  0  0  0  0  0  0  0  0  0
+          0  0  0  0  0  0  0  0  0  0  0  0  0  0  0  0  0
+          0  0  0  0  0  0  0  0  0  0  0  0  0  0  0  0  0
++         2  2  2  2  2  2  2  2  2  2  2  2  2  2  2  2  2
++         2  2  2  2  2  2  2  2  2  2  2  2  2  2  0  0  0
++         0  0  0  0  0  0  0  0  0  0  0  0  0  0  0  0  0
++         0  0  0  0  0  0  0  0  0  0  0  0  0  0  0  0  0
++         0  0  0  0  0  0  0  0  0  0  0  0  0  0  0  0  0
%c cc cc ccc ccc cccc cccc cccc cccc ccccc ccccc ccccc ccccc
%c cc cc ccc ccc cccc cccc cccc cccc ccccc ccccc ccccc ccccc
%f  0.0000000  0.000000000  0.00000000000  0.000000000000000
%f  0.0000000  0.000000000  0.00000000000  0.000000000000000
%i    0    0    0    0      0      0      0      0         0
%i    0    0    0    0      0      0      0      0         0
/*      NGA, ST. LOUIS,MO.                                  
/*   EPHEMERIS COMPUTED FROM 2 DAYS OF DATA                 
/*   EPOCHA v6 SMOOTHER                                     
/*   G2139 IERS2010 SATIGS SATAPC                           
*  2021  6 19 22 20  0.00000000
P  1  -1347.740327  15760.049925 -21540.269485    653.293513                    
V  1 -25275.158600   8721.101127   8397.208096     -0.117047                    
P  2  21415.459780 -14787.486658   6100.627264   -613.632277                    
V  2   7301.962777   -686.163384 -30524.845517     -0.028719                    
P  3   7475.595102  20060.543865 -15880.570850   -196.737659                    
V  3 -16536.190423 -11262.326236 -22022.471555     -0.107648                    
P  4   -181.354168  25674.418388   6689.794033   -200.345042                    
V  4  -4311.892295   7823.026741 -30237.564491     -0.010835                    
P  5   6109.506637 -14259.882977  21386.216316    -45.447974                    
V  5  22351.670568  16129.038655   4515.109600     -0.011319                    
P  6  25378.923943  -6146.458089  -4975.365378     29.055249                    
V  6  -5238.976161   4118.647893 -31399.515743      0.048028                    
P  7  14239.779435  10223.797489  20445.404049    182.477291                    
V  7 -23190.567790   9545.290493  11090.007699      0.096028                    
P  8  -6096.634434  25417.401342   3652.345445    -25.723678                    
V  8  -2173.286644  -5040.716592  31640.020953     -0.014670                    
P  9   8514.342920  19601.564052  15699.690494   -351.915899                    
V  9  -4909.367654  19578.582282 -21722.047420     -0.018308                    
P 10 -22811.327806 -10150.225063  -9329.058855   -145.697516                    
V 10  -7957.531705  -9120.030416  28752.415317     -0.076045                    
P 12  -4863.394355 -20226.706608 -16845.691097    -57.303331                    
V 12  16173.724323  13193.794421 -20690.194837     -0.052367                    
P 13  13146.232968 -20785.360888   9714.543621    147.050190                    
V 13  -1206.754846  12745.640539  28649.764305      0.048887                    
P 14  22343.107772  10768.798658  -9562.523166     65.718309                    
V 14   7354.374802   9987.802080  28415.304342     -0.077365                    
P 15   3148.217519 -25984.578001   2827.934860   -141.223162                    
V 15   3969.258356   4244.623110  30974.753556      0.026293                    
P 16 -12082.837594   8849.365312  21715.477751   -343.966796                    
V 16 -20137.050812 -19591.563472  -2742.470671     -0.060631                    
P 17  13688.453471   5289.779534 -21712.127100    461.113279                    
V 17  -6351.966814  27826.700756   2725.072500      0.060274                    
P 18 -16634.996069  -7989.460708  19116.440505    345.895438                    
V 18  22412.328987  -9350.183595  15514.519773     -0.019424                    
P 19  15835.270070  -4363.453482 -21128.616433     15.587331                    
V 19  -6109.900879  25433.171837 -10093.182068      0.049825                    
P 20   8112.100929 -13404.842144  21398.571715    521.001463                    
V 20  23462.822253  14059.884754   -377.520497     -0.003883                    
P 21  -9436.353451  17451.769535 -16706.108615    126.119726                    
V 21 -21599.640089   7623.376802  19851.874306      0.024575                    
P 22   -854.475799  17168.552589 -20109.579487   -584.223846                    
V 22 -22350.009535 -13315.638179 -10123.705352      0.096247                    
P 23 -20475.668179 -16905.862339   1380.058790     94.905782                    
V 23   3019.357046  -1020.936082  31742.692895     -0.043729                    
P 24   5728.519446 -17983.494529 -18783.619127    140.003074                    
V 24  22157.870785  -8245.442450  15246.713175      0.174189                    
P 25 -15872.579987 -20004.045534  -8052.504766    158.917322                    
V 25   9105.276659   4311.372305 -29368.709460      0.068507                    
P 26 -19717.810149   1540.440994  17792.733335    100.501957                    
V 26 -17191.892937 -14885.296867 -17434.745658      0.047727                    
P 27 -12081.645503  19295.387468  13187.459788   -149.876888                    
V 27    514.713272 -17288.728358  25777.638988     -0.061718                    
P 28  20851.864316   6729.164941 -14329.944223    551.813831                    
V 28  12248.627869  14941.366746  24115.879124     -0.064298                    
P 29  -5752.990168 -20715.688352  15507.890974   -366.893989                    
V 29   5997.865783 -18889.368356 -22983.115301     -0.062766                    
P 30  23558.489540   1361.314582  12485.910659   -441.026895                    
V 30 -13896.055380   7831.355418  25261.895040     -0.046223                    
P 31 -25687.932472   7339.950837  -2389.484097   -124.019230                    
V 31   1869.971185  -3377.154539 -31152.391696     -0.021532                    
P 32 -15121.801935  -1941.540197 -21631.927806     17.842472                    
V 32   4019.756819 -27465.704886   -511.318224     -0.014737                    
EOF
